{
  "norad_id": 62960,
  "name": "STARLINK-32877",
  "history": [
    {
      "epoch": "2026-03-28T13:33:02.355840Z",
      "apogee_km": 475.6559618387191,
      "perigee_km": 474.7472091422824,
      "latitude_deg": -5.514418568184443e-05,
      "longitude_deg": 115.80950151679312,
      "height_km": 476.1012056935122,
      "semi_major_axis_km": 6853.3385854905,
      "eccentricity": 6.63e-05,
      "inclination_deg": 53.1591,
      "raan_deg": 145.0526,
      "arg_perigee_deg": 90.1041,
      "mean_anomaly_deg": 270.0035,
      "mean_motion_rev_day": 15.30204516
    }
  ]
}